BEIDOU 3 (C01)          
1 36287U 10001A   21268.28412222 -.00000285  00000-0  00000-0 0  9996
2 36287   1.6523  40.2376 0003353  76.5639 130.2107  1.00268227 42858
BEIDOU 5 (C06)          
1 36828U 10036A   21268.55073005 -.00000126  00000-0  00000+0 0  9990
2 36828  54.1819 178.6698 0023247 181.2295 310.2193  1.00274439 40922
BEIDOU 6 (C04)          
1 37210U 10057A   21267.78560587 -.00000118  00000-0  00000+0 0  9990
2 37210   1.0113  56.3096 0006915 135.9468 254.2906  1.00269851 39975
BEIDOU 7 (C07)          
1 37256U 10068A   21267.99098609 -.00000184  00000-0  00000+0 0  9999
2 37256  50.7074 292.8066 0018289 190.2705 346.6279  1.00278584 39489
BEIDOU 8 (C08)          
1 37384U 11013A   21268.26697749 -.00000162  00000-0  00000-0 0  9990
2 37384  59.9172  56.8970 0018617 179.6547 330.0907  1.00279320 38363
BEIDOU 9 (C09)          
1 37763U 11038A   21268.22356813 -.00000076  00000-0  00000-0 0  9992
2 37763  54.4715 181.1335 0086656 226.9182 130.2428  1.00289319 37336
BEIDOU 10 (C10)         
1 37948U 11073A   21267.51122301 -.00000139  00000-0  00000-0 0  9990
2 37948  50.7934 292.4505 0079048 217.2510 134.1283  1.00270830 36084
BEIDOU 11 (C05)         
1 38091U 12008A   21268.12433865  .00000053  00000-0  00000-0 0  9991
2 38091   1.7653  70.0403 0003152 333.4950  64.1136  1.00269269 35179
BEIDOU 12 (C11)         
1 38250U 12018A   21267.76204126 -.00000110  00000-0  00000-0 0  9999
2 38250  56.7469   2.3367 0022848 244.5035  31.6538  1.86234315 64138
BEIDOU 13 (C12)         
1 38251U 12018B   21267.69291808 -.00000110  00000-0  00000-0 0  9995
2 38251  56.6687   1.6810 0013756 243.7044  30.4532  1.86234058 64139
BEIDOU 15 (C14)         
1 38775U 12050B   21267.97442571  .00000003  00000-0  00000-0 0  9998
2 38775  55.2535 120.6282 0012802 328.2277 331.9433  1.86231303 61518
BEIDOU 16 (C02)         
1 38953U 12059A   21268.05761679 -.00000180  00000-0  00000-0 0  9995
2 38953   1.3336  84.0801 0009485 290.0497  94.7273  1.00275436 32740
BEIDOU 17 (C31)         
1 40549U 15019A   21267.61785370 -.00000146  00000-0  00000-0 0  9995
2 40549  52.3317 315.8427 0038200 188.9390 172.7758  1.00299101 23775
BEIDOU 18 (C57)         
1 40748U 15037A   21267.83074384 -.00000111  00000-0  00000-0 0  9998
2 40748  55.9272   0.7047 0001401  41.6474 234.7006  1.86233342 41969
BEIDOU 19 (C58)         
1 40749U 15037B   21267.73121318 -.00000111  00000-0  00000-0 0  9998
2 40749  55.9304   0.6955 0002785 295.3779  49.8999  1.86232092 41951
BEIDOU 20 (C18)         
1 40938U 15053A   21267.98828233 -.00000108  00000-0  00000-0 0  9999
2 40938  51.9133 278.9200 0048398 195.9097 340.0233  1.00261312 22047
BEIDOU IGSO-6 (C13)     
1 41434U 16021A   21268.31648701 -.00000131  00000-0  00000-0 0  9991
2 41434  57.7127  55.5977 0043271 210.2904 305.6747  1.00292883 20175
BEIDOU-2 G7 (C03)       
1 41586U 16037A   21268.06293711 -.00000358  00000-0  00000-0 0  9996
2 41586   1.9105  69.0320 0007694  14.3445  53.9573  1.00272966 19486
BEIDOU-3 M1 (C19)       
1 43001U 17069A   21268.31651179  .00000002  00000-0  00000+0 0  9994
2 43001  55.4073 120.5813 0008130 295.2607  30.2827  1.86231836 26454
BEIDOU-3 M2 (C20)       
1 43002U 17069B   21268.24315759  .00000003  00000-0  00000+0 0  9999
2 43002  55.4064 120.6190 0007242 322.1902 357.4978  1.86231438 26443
BEIDOU-3 M3 (C27)       
1 43107U 18003A   21267.89546454 -.00000112  00000-0  00000-0 0  9995
2 43107  55.3720   1.7371 0004092  64.6357 187.8572  1.86232493 25209
BEIDOU-3 M4 (C28)       
1 43108U 18003B   21267.82826870 -.00000112  00000-0  00000-0 0  9992
2 43108  55.3661   1.7285 0003606 227.4989  25.1206  1.86232469 25209
BEIDOU-3 M5 (C21)       
1 43207U 18018A   21267.89874760  .00000004  00000-0  00000+0 0  9994
2 43207  55.3640 120.7184 0005137 356.1378   3.9393  1.86231557 24598
BEIDOU-3 M6 (C22)       
1 43208U 18018B   21267.96547667  .00000003  00000-0  00000-0 0  9996
2 43208  55.3657 120.7214 0006341 310.9685  49.0641  1.86231661 24591
BEIDOU-3 M7 (C29)       
1 43245U 18029A   21268.30959777 -.00000111  00000-0  00000+0 0  9997
2 43245  55.2981 359.5083 0000958 171.8192 268.5871  1.86232557 23757
BEIDOU-3 M8 (C30)       
1 43246U 18029B   21267.96349874 -.00000112  00000-0  10000-3 0  9996
2 43246  55.2952 359.5504 0002841 348.0202 266.6320  1.86233070 23734
BEIDOU IGSO-7 (C16)     
1 43539U 18057A   21267.90357141 -.00000131  00000-0  00000-0 0  9999
2 43539  55.0636 178.0670 0041315 224.2285  38.6893  1.00291549 11841
BEIDOU-3 M9 (C23)       
1 43581U 18062A   21267.63335802  .00000017  00000-0  00000-0 0  9994
2 43581  54.3664 241.1931 0006238 273.5616 330.0438  1.86231812 21478
BEIDOU-3 M10 (C24)      
1 43582U 18062B   21268.03909356  .00000021  00000-0  00000-0 0  9996
2 43582  54.3664 241.1690 0005521 330.9516 276.1260  1.86232192 21488
BEIDOU-3 M11 (C25)      
1 43602U 18067A   21267.97556067  .00000021  00000-0  00000-0 0  9993
2 43602  54.4443 239.7623 0006957 351.8444 254.6588  1.86231521 20974
BEIDOU-3 M12 (C26)      
1 43603U 18067B   21267.57407380  .00000017  00000-0  00000-0 0  9998
2 43603  54.4411 239.7437 0004510 334.2381 273.5254  1.86231458 20981
BEIDOU-3 M13 (C32)      
1 43622U 18072A   21267.67550294  .00000004  00000-0  00000-0 0  9995
2 43622  55.3313 120.2905 0004964 293.0052  52.7685  1.86231933 20496
BEIDOU-3 M14 (C33)      
1 43623U 18072B   21267.82585280  .00000004  00000-0  00000-0 0  9996
2 43623  55.3336 120.2764 0003615 332.8370 203.9713  1.86231945 20509
BEIDOU-3 M15 (C34)      
1 43647U 18078A   21267.74782231 -.00000112  00000-0  10000-3 0  9999
2 43647  55.1928 359.7083 0005162 358.1818  21.5269  1.86232729 20017
BEIDOU-3 M16 (C35)      
1 43648U 18078B   21268.23862153 -.00000112  00000-0  00000+0 0  9992
2 43648  55.1884 359.6991 0003212  16.8566 240.1945  1.86232309 20034
BEIDOU-3 G1 (C59)       
1 43683U 18085A   21268.26275204 -.00000282  00000-0  00000-0 0  9996
2 43683   0.9246 213.7347 0004655  25.7236 359.4883  1.00272558 10752
BEIDOU-3 M17 (C36)      
1 43706U 18093A   21268.00821441  .00000021  00000-0  00000-0 0  9993
2 43706  54.4478 241.0465 0011370 273.0421  86.7983  1.86232045 19391
BEIDOU-3 M18 (C37)      
1 43707U 18093B   21267.70356778  .00000018  00000-0  00000-0 0  9992
2 43707  54.4491 241.0477 0010059 292.0100 314.5261  1.86232118 19378
BEIDOU-3 IGSO-1 (C38)   
1 44204U 19023A   21267.67301294 -.00000201  00000-0  00000+0 0  9992
2 44204  56.1677  55.8411 0022569 184.8303 123.1152  1.00291272  9045
BEIDOU-2 G8             
1 44231U 19027A   21268.32820206 -.00000251  00000-0  00000-0 0  9994
2 44231   0.3034  35.6512 0007143 161.6486  69.7829  1.00271524  8769
BEIDOU-3 IGSO-2 (C39)   
1 44337U 19035A   21267.97093104 -.00000134  00000-0  00000+0 0  9998
2 44337  55.0985 174.0996 0020232 182.4069 116.2860  1.00282284  8380
BEIDOU-3 M23 (C45)      
1 44542U 19061A   21267.77113458  .00000019  00000-0  10000-3 0  9994
2 44542  54.6728 241.1435 0009259 319.1675 285.3787  1.86231430 13631
BEIDOU-3 M24 (C46)      
1 44543U 19061B   21268.21811519  .00000024  00000-0  10000-3 0  9994
2 44543  54.6702 241.0948 0006939 307.3032 147.9094  1.86231897 13642
BEIDOU-3 IGSO-3         
1 44709U 19073A   21268.30280329 -.00000160  00000-0  00000-0 0  9998
2 44709  57.6868 299.1326 0020491 184.6215 108.9435  1.00287012  7144
BEIDOU-3 M21            
1 44793U 19078A   21268.36656373 -.00000112  00000-0  10000-3 0  9999
2 44793  55.0421 359.7390 0005032   5.8799  22.9791  1.86232754 12517
BEIDOU-3 M22            
1 44794U 19078B   21268.40121757 -.00000112  00000-0  00000+0 0  9993
2 44794  55.0173 359.7361 0003136 357.6623 325.5922  1.86232871 12504
BEIDOU-3 M19            
1 44864U 19090A   21268.10780565  .00000003  00000-0  00000+0 0  9998
2 44864  55.2671 120.5015 0014660 267.0470  54.0894  1.86232010 12085
BEIDOU-3 M20            
1 44865U 19090B   21267.97229839  .00000003  00000-0  00000-0 0  9996
2 44865  55.2689 120.5367 0013188 283.4617  36.7279  1.86231956 12053
BEIDOU-3 G2             
1 45344U 20017A   21268.12861234 -.00000146  00000-0  00000-0 0  9998
2 45344   2.3083 339.6560 0003797 161.4935 349.3393  1.00270889  5964
BEIDOU-3 G3             
1 45807U 20040A   21268.27819139 -.00000359  00000-0  00000-0 0  9997
2 45807   2.0562 299.0691 0009937 336.2738 299.6605  1.00275478  4776
